format  = 'OEF2.0'       ! file format
rectype = 'ML'           ! record type (1L/ML)
refsys  = ECLM J2000     ! default reference system
END_OF_HEADER
203
! Equinoctial elements: a, e*sin(LP), e*cos(LP), tan(i/2)*sin(LN), tan(i/2)*cos(LN), mean long.
 EQU   2.7385249933616391E+00   0.045087089252389   0.041231297793564   -0.005947645824719    0.027042352297741 112.3228065415555
 MJD     61000.000000000 TDT
 MAG   8.958  0.150
! Non-grav parameters: model used, actual number in use, dimension
 LSP   0  0    6
! RMS    5.10924E-09   2.11681E-08   3.02863E-08   1.85853E-08   2.82735E-08   3.20220E-06
! EIG   3.11174E-09   1.80691E-08   1.87617E-08   2.84914E-08   2.87465E-08   5.77368E-08
! WEA   0.06437   0.17436   0.19996  -0.00908   0.00294  -0.96197
 COV   2.610430989624250E-17  3.234249310905640E-17 -4.683335932929770E-19
 COV  -1.845458484275514E-18  4.894923980973185E-19 -1.234843820246659E-14
 COV   4.480865553666626E-16  4.750997784519262E-17 -7.567489972681511E-19
 COV   4.774533628596780E-18 -2.927361187988315E-14  9.172584972613758E-16
 COV   8.962230561256752E-18 -2.408108797404707E-18 -2.829079759293704E-14
 COV   3.454146365470996E-16 -8.869163959201997E-17  1.692273398176731E-15
 COV   7.993900032499217E-16 -3.727980819645014E-16  1.025409314265247E-11
 NOR   1.024583990396955E+17  1.210335959211620E+15  4.268525521968067E+15
 NOR  -2.450486691759676E+14 -1.963386096506717E+13  1.386567739965415E+14
 NOR   2.768307596394352E+15  1.601569457083520E+14 -4.407416657326000E+13
 NOR  -1.710848731468232E+13  9.809087434720773E+12  1.374572680010300E+15
 NOR  -5.896772803561360E+13 -1.588380651191149E+12  9.399656253412328E+12
 NOR   2.985391306753358E+15  3.309659525173676E+14 -1.064271322674152E+12
 NOR   1.287744172640485E+15 -8.467132093064772E+10  3.186079181561503E+11
